[{"OBJECT_NAME":"STARLINK-3449","OBJECT_ID":"2022-016AH","EPOCH":"2026-03-09T23:09:30.014208","MEAN_MOTION":15.08832097,"ECCENTRICITY":0.00013727,"INCLINATION":53.218,"RA_OF_ASC_NODE":317.8855,"ARG_OF_PERICENTER":87.9705,"MEAN_ANOMALY":272.1444,"EPHEMERIS_TYPE":0,"CLASSIFICATION_TYPE":"U","NORAD_CAT_ID":51745,"ELEMENT_SET_NO":999,"REV_AT_EPOCH":22360,"BSTAR":3.8558592e-5,"MEAN_MOTION_DOT":3.26e-6,"MEAN_MOTION_DDOT":0},{"OBJECT_NAME":"CZ-2D DEB","OBJECT_ID":"2010-027G","EPOCH":"2026-03-07T07:54:25.300800","MEAN_MOTION":15.18267572,"ECCENTRICITY":0.0071051,"INCLINATION":97.484,"RA_OF_ASC_NODE":105.3106,"ARG_OF_PERICENTER":258.5099,"MEAN_ANOMALY":100.8151,"EPHEMERIS_TYPE":0,"CLASSIFICATION_TYPE":"U","NORAD_CAT_ID":38302,"ELEMENT_SET_NO":999,"REV_AT_EPOCH":83107,"BSTAR":0.0021438,"MEAN_MOTION_DOT":0.00047105,"MEAN_MOTION_DDOT":0}]
